{
  "updatedAt": "2026-03-20T16:26:01.420Z",
  "entries": {
    "koreasat-7-42691": {
      "fetchedAt": "2026-03-20T16:26:01.420Z",
      "fleetEntry": {
        "id": "koreasat-7-42691",
        "name": "KOREASAT 7",
        "englishName": "KOREASAT 7",
        "domesticName": "KOREASAT 7",
        "color": "#9ad1d4",
        "norad": "42691",
        "orbitClass": "geo",
        "orbitLabel": "GEO",
        "missionType": "communications",
        "missionLabel": "상업 통신",
        "operationalStatus": "운용 중",
        "objectId": "2017-023A",
        "launchDate": "2017-05-04",
        "sourceDate": "2026-03-20",
        "sourceLabel": "Space-Track cached GP",
        "omm": {
          "CCSDS_OMM_VERS": "3.0",
          "COMMENT": "GENERATED VIA SPACE-TRACK.ORG API",
          "CREATION_DATE": "2026-03-20T14:36:41",
          "ORIGINATOR": "18 SPCS",
          "OBJECT_NAME": "KOREASAT 7",
          "OBJECT_ID": "2017-023A",
          "CENTER_NAME": "EARTH",
          "REF_FRAME": "TEME",
          "TIME_SYSTEM": "UTC",
          "MEAN_ELEMENT_THEORY": "SGP4",
          "EPOCH": "2026-03-20T13:26:58.200576",
          "MEAN_MOTION": 1.00273476,
          "ECCENTRICITY": 0.0001788,
          "INCLINATION": 0.0263,
          "RA_OF_ASC_NODE": 45.6379,
          "ARG_OF_PERICENTER": 334.8913,
          "MEAN_ANOMALY": 115.1859,
          "EPHEMERIS_TYPE": 0,
          "CLASSIFICATION_TYPE": "U",
          "NORAD_CAT_ID": 42691,
          "ELEMENT_SET_NO": 999,
          "REV_AT_EPOCH": 3248,
          "BSTAR": 0,
          "MEAN_MOTION_DOT": -0.00000359,
          "MEAN_MOTION_DDOT": 0,
          "SEMIMAJOR_AXIS": "42164.258",
          "PERIOD": "1436.073",
          "APOAPSIS": "35793.662",
          "PERIAPSIS": "35778.584",
          "OBJECT_TYPE": "PAYLOAD",
          "RCS_SIZE": "LARGE",
          "COUNTRY_CODE": "SKOR",
          "LAUNCH_DATE": "2017-05-04",
          "SITE": "FRGUI",
          "DECAY_DATE": null,
          "FILE": "5093311",
          "GP_ID": "316568258",
          "TLE_LINE0": "0 KOREASAT 7",
          "TLE_LINE1": "1 42691U 17023A   26079.56039584 -.00000359  00000-0  00000+0 0  9996",
          "TLE_LINE2": "2 42691   0.0263  45.6379 0001788 334.8913 115.1859  1.00273476 32481"
        }
      }
    },
    "step-cube-lab-43138": {
      "fetchedAt": "2026-03-20T13:09:35.883Z",
      "fleetEntry": {
        "id": "step-cube-lab-43138",
        "name": "STEP CUBE LAB",
        "englishName": "STEP CUBE LAB",
        "domesticName": "STEP CUBE LAB",
        "color": "#ff9059",
        "norad": "43138",
        "orbitClass": "leo",
        "orbitLabel": "LEO SSO",
        "missionType": "technology",
        "missionLabel": "기술실증/학술",
        "operationalStatus": "비현역",
        "objectId": "2018-004AD",
        "launchDate": "2018-01-12",
        "sourceDate": "2023-05-20",
        "sourceLabel": "Space-Track cached GP",
        "omm": {
          "CCSDS_OMM_VERS": "3.0",
          "COMMENT": "GENERATED VIA SPACE-TRACK.ORG API",
          "CREATION_DATE": "2023-05-21T19:36:05",
          "ORIGINATOR": "18 SPCS",
          "OBJECT_NAME": "STEP CUBE LAB",
          "OBJECT_ID": "2018-004AD",
          "CENTER_NAME": "EARTH",
          "REF_FRAME": "TEME",
          "TIME_SYSTEM": "UTC",
          "MEAN_ELEMENT_THEORY": "SGP4",
          "EPOCH": "2023-05-20T01:45:24.424704",
          "MEAN_MOTION": 16.49267352,
          "ECCENTRICITY": 0.0016113,
          "INCLINATION": 97.3024,
          "RA_OF_ASC_NODE": 230.4644,
          "ARG_OF_PERICENTER": 279.5975,
          "MEAN_ANOMALY": 80.3508,
          "EPHEMERIS_TYPE": 0,
          "CLASSIFICATION_TYPE": "U",
          "NORAD_CAT_ID": 43138,
          "ELEMENT_SET_NO": 999,
          "REV_AT_EPOCH": 29866,
          "BSTAR": 0.00020639,
          "MEAN_MOTION_DOT": 0.18079883,
          "MEAN_MOTION_DDOT": 0.0000025453,
          "SEMIMAJOR_AXIS": "6519.403",
          "PERIOD": "87.311",
          "APOAPSIS": "151.772",
          "PERIAPSIS": "130.763",
          "OBJECT_TYPE": "PAYLOAD",
          "RCS_SIZE": "SMALL",
          "COUNTRY_CODE": "SKOR",
          "LAUNCH_DATE": "2018-01-12",
          "SITE": "SRI",
          "DECAY_DATE": "2023-05-23",
          "FILE": "3913738",
          "GP_ID": "232244194",
          "TLE_LINE0": "0 STEP CUBE LAB",
          "TLE_LINE1": "1 43138U 18004AD  23140.07319936  .18079883  25453-5  20639-3 0  9991",
          "TLE_LINE2": "2 43138  97.3024 230.4644 0016113 279.5975  80.3508 16.49267352298665"
        }
      }
    },
    "nextsat-1-43811": {
      "fetchedAt": "2026-03-20T16:26:01.420Z",
      "fleetEntry": {
        "id": "nextsat-1-43811",
        "name": "NEXTSAT-1",
        "englishName": "NEXTSAT-1",
        "domesticName": "NEXTSAT-1",
        "color": "#7bdff2",
        "norad": "43811",
        "orbitClass": "leo",
        "orbitLabel": "LEO SSO",
        "missionType": "technology",
        "missionLabel": "기술실증/학술",
        "operationalStatus": "비현역",
        "objectId": "2018-099BF",
        "launchDate": "2018-12-03",
        "sourceDate": "2026-03-20",
        "sourceLabel": "Space-Track cached GP",
        "omm": {
          "CCSDS_OMM_VERS": "3.0",
          "COMMENT": "GENERATED VIA SPACE-TRACK.ORG API",
          "CREATION_DATE": "2026-03-20T14:36:41",
          "ORIGINATOR": "18 SPCS",
          "OBJECT_NAME": "NEXTSAT-1",
          "OBJECT_ID": "2018-099BF",
          "CENTER_NAME": "EARTH",
          "REF_FRAME": "TEME",
          "TIME_SYSTEM": "UTC",
          "MEAN_ELEMENT_THEORY": "SGP4",
          "EPOCH": "2026-03-20T08:46:50.422368",
          "MEAN_MOTION": 15.08123631,
          "ECCENTRICITY": 0.001059,
          "INCLINATION": 97.4182,
          "RA_OF_ASC_NODE": 125.1743,
          "ARG_OF_PERICENTER": 283.2826,
          "MEAN_ANOMALY": 76.7221,
          "EPHEMERIS_TYPE": 0,
          "CLASSIFICATION_TYPE": "U",
          "NORAD_CAT_ID": 43811,
          "ELEMENT_SET_NO": 999,
          "REV_AT_EPOCH": 39849,
          "BSTAR": 0.00010947,
          "MEAN_MOTION_DOT": 0.0000163,
          "MEAN_MOTION_DDOT": 0,
          "SEMIMAJOR_AXIS": "6920.071",
          "PERIOD": "95.483",
          "APOAPSIS": "549.264",
          "PERIAPSIS": "534.608",
          "OBJECT_TYPE": "PAYLOAD",
          "RCS_SIZE": "MEDIUM",
          "COUNTRY_CODE": "SKOR",
          "LAUNCH_DATE": "2018-12-03",
          "SITE": "AFWTR",
          "DECAY_DATE": null,
          "FILE": "5093331",
          "GP_ID": "316569009",
          "TLE_LINE0": "0 NEXTSAT-1",
          "TLE_LINE1": "1 43811U 18099BF  26079.36586137  .00001630  00000-0  10947-3 0  9991",
          "TLE_LINE2": "2 43811  97.4182 125.1743 0010590 283.2826  76.7221 15.08123631398497"
        }
      }
    },
    "snuglite-43784": {
      "fetchedAt": "2026-03-20T16:26:01.420Z",
      "fleetEntry": {
        "id": "snuglite-43784",
        "name": "SNUGLITE",
        "englishName": "SNUGLITE",
        "domesticName": "SNUGLITE",
        "color": "#8bd0ff",
        "norad": "43784",
        "orbitClass": "leo",
        "orbitLabel": "LEO SSO",
        "missionType": "technology",
        "missionLabel": "기술실증/학술",
        "operationalStatus": "비현역",
        "objectId": "2018-099AC",
        "launchDate": "2018-12-03",
        "sourceDate": "2026-03-20",
        "sourceLabel": "Space-Track cached GP",
        "omm": {
          "CCSDS_OMM_VERS": "3.0",
          "COMMENT": "GENERATED VIA SPACE-TRACK.ORG API",
          "CREATION_DATE": "2026-03-20T14:36:41",
          "ORIGINATOR": "18 SPCS",
          "OBJECT_NAME": "SNUGLITE",
          "OBJECT_ID": "2018-099AC",
          "CENTER_NAME": "EARTH",
          "REF_FRAME": "TEME",
          "TIME_SYSTEM": "UTC",
          "MEAN_ELEMENT_THEORY": "SGP4",
          "EPOCH": "2026-03-20T08:50:38.321376",
          "MEAN_MOTION": 15.25095345,
          "ECCENTRICITY": 0.0001974,
          "INCLINATION": 97.3978,
          "RA_OF_ASC_NODE": 134.6061,
          "ARG_OF_PERICENTER": 209.9026,
          "MEAN_ANOMALY": 150.2099,
          "EPHEMERIS_TYPE": 0,
          "CLASSIFICATION_TYPE": "U",
          "NORAD_CAT_ID": 43784,
          "ELEMENT_SET_NO": 999,
          "REV_AT_EPOCH": 39977,
          "BSTAR": 0.000341,
          "MEAN_MOTION_DOT": 0.00008464,
          "MEAN_MOTION_DDOT": 0,
          "SEMIMAJOR_AXIS": "6868.636",
          "PERIOD": "94.420",
          "APOAPSIS": "491.857",
          "PERIAPSIS": "489.145",
          "OBJECT_TYPE": "PAYLOAD",
          "RCS_SIZE": "SMALL",
          "COUNTRY_CODE": "SKOR",
          "LAUNCH_DATE": "2018-12-03",
          "SITE": "AFWTR",
          "DECAY_DATE": null,
          "FILE": "5093331",
          "GP_ID": "316569002",
          "TLE_LINE0": "0 SNUGLITE",
          "TLE_LINE1": "1 43784U 18099AC  26079.36849909  .00008464  00000-0  34100-3 0  9998",
          "TLE_LINE2": "2 43784  97.3978 134.6061 0001974 209.9026 150.2099 15.25095345399771"
        }
      }
    }
  }
}